[Satellite]
VERSION=1.1
NAME=KAITUO 1A
NICKNAME=KAITUO 1A
TLE1=1 40904U 15049F   22342.58582334  .00006071  00000+0  28504-3 0  9992
TLE2=2 40904  97.4984 343.6866 0014261 118.6816  29.4411 15.19912649399291
STATUS=0
